OBJECT_NAME,NORAD_CAT_ID,EPOCH,MEAN_MOTION,ECCENTRICITY,INCLINATION,RA_OF_ASC_NODE,ARG_OF_PERICENTER,MEAN_ANOMALY,BSTAR,SEMIMAJOR_AXIS,PERIOD,APOAPSIS,PERIAPSIS
ARIANE 42P+ DEB,26741,2025-03-22 09:27:26.859168,2.92900115,0.651775,7.2758,196.8511,17.7842,4.7919,-0.081433,20634.256,491.635,27705.013,807.229
DIDO 3,46284,2025-03-22 11:42:13.848192,16.3776613,0.0011148,97.2679,159.5651,273.5907,86.4116,0.00076787,6549.889,87.925,179.055,164.452
STARLINK-5033,55412,2025-03-22 11:53:17.629152,16.4886818,0.0004666,69.9824,236.6307,220.2166,203.3918,0.00027485,6520.455,87.333,145.362,139.277
NOAA 16 DEB,41501,2025-03-22 15:23:15.012672,15.44671819,0.0022054,98.6593,224.9102,288.1955,71.6889,0.043141,6810.48,93.224,447.364,417.325
TAUSAT-2,55073,2025-03-22 16:34:53.498208,16.37417385,0.0011744,97.3435,159.2003,269.6525,90.3427,0.0010714,6550.819,87.943,180.377,164.99
COSMOS 2251 DEB,34914,2025-03-22 20:56:11.742432,15.68663127,0.0025044,73.9558,266.8949,239.4909,120.3841,0.0096295,6740.861,91.798,379.608,345.844
CZ-6A DEB,54396,2025-03-22 23:37:44.630976,15.70386471,0.001099,98.4636,150.2385,49.214,311.0071,0.016882,6735.929,91.697,365.196,350.391
STARLINK-2013,47636,2025-03-23 01:19:22.909728,16.45253699,0.0005985,53.0197,135.4573,307.7036,126.9505,0.00057487,6530.001,87.524,155.774,147.958
STARLINK-1399,45683,2025-03-23 05:04:38.200800,16.45951773,0.0003192,53.0271,153.58,280.996,130.4255,0.00039256,6528.155,87.487,152.103,147.936
FENGYUN 1C DEB,36228,2025-03-23 11:38:15.889632,15.57211232,0.0025123,99.2391,356.5714,108.3803,252.0181,0.021046,6773.869,92.473,412.752,378.716
TBA - TO BE ASSIGNED,81813,2025-03-23 13:10:59.157120,14.58374487,0.0015233,99.0157,19.5947,165.1446,195.0201,0.0043586,7076.564,98.74,709.209,687.65
CZ-6A DEB,54957,2025-03-23 17:50:39.062688,15.64545122,0.0013026,98.6406,171.7311,54.9735,305.274,0.015297,6752.684,92.04,383.345,365.753
COSMOS 2251 DEB,34948,2025-03-23 18:41:56.576256,15.6509427,0.0028317,73.9718,207.2955,333.6507,26.3271,0.021995,6751.105,92.007,392.087,353.853
KEPLER-11 (DANEEL),47503,2025-03-23 22:06:17.641728,16.25945445,0.0006876,97.2577,153.0744,249.3158,110.7397,0.00092607,6581.596,88.564,207.986,198.935
SL-4 R/B,62906,2025-03-24 03:23:25.709856,16.47297977,0.0040249,81.9679,166.0817,247.4325,195.293,0.00014981,6524.598,87.416,172.723,120.202
OBJECT DL,59478,2025-03-24 03:59:41.709408,16.26928089,0.0012834,97.3835,171.624,269.3392,90.643,0.0036812,6578.945,88.51,209.254,192.367
CZ-6A DEB,61470,2025-03-24 04:07:31.360800,15.82910247,0.0022516,89.2444,330.3664,227.4813,132.4565,0.031253,6700.352,90.972,337.304,307.131
STARLINK-2561,48403,2025-03-24 07:08:25.385856,16.37317342,0.0002283,53.0368,92.9314,284.4181,196.4343,0.00099967,6551.085,87.949,174.446,171.455
ARIANE 44LP DEB,27661,2025-03-24 11:31:54.462144,2.95097831,0.6709613,5.4124,151.6997,40.0308,353.7531,0.0016863,20531.68,487.974,27929.508,377.582
DRAGON FREEDOM-2 DEB,63331,2025-03-24 19:39:13.875840,16.43181485,0.0028753,52.1202,2.6839,88.5024,14.395,0.00042883,6535.49,87.635,176.146,138.563
STARLINK-1925,46756,2025-03-24 20:25:33.579840,16.48268014,0.0008408,53.0138,42.924,144.1187,301.5151,0.0012239,6522.037,87.364,149.386,138.419
OBJECT C,56733,2025-03-24 22:09:26.046432,16.46850411,0.0005726,40.9809,278.3067,242.822,264.6483,0.00038256,6525.78,87.44,151.381,143.908
STARLINK-2025,47607,2025-03-25 01:17:19.942656,16.45480461,0.0002513,53.0148,87.5079,320.0201,142.2026,0.00052924,6529.401,87.512,152.907,149.625
CZ-3C DEB,40869,2025-03-25 02:59:51.742752,2.08076827,0.7262175,18.4629,332.1867,75.3844,348.9966,0.063035,25917.078,692.052,38360.378,717.507
STARLINK-1205,45184,2025-03-25 04:26:41.904672,16.28370854,0.0003499,53.0185,89.4374,240.2389,203.4255,0.0012509,6575.059,88.432,199.224,194.623
STARLINK-2062,47670,2025-03-25 05:09:28.168704,16.45378035,0.0005803,53.0275,131.0139,337.6475,135.0023,0.00057222,6529.672,87.518,155.326,147.748
ARIANE 1 DEB,48346,2025-03-25 07:29:16.931328,3.97818702,0.5888147,8.2419,197.1948,142.7479,214.1896,0.0041815,16824.611,361.974,20353.055,539.898
CZ-6A DEB,61328,2025-03-25 15:05:45.524832,15.95631903,0.0020401,89.2593,330.8525,224.5359,135.4289,0.033283,6664.691,90.246,300.153,272.96
FENGYUN 1C DEB,31848,2025-03-25 15:32:07.914912,16.02244882,0.0020108,96.6773,52.6466,183.8692,176.2437,0.0082178,6646.34,89.874,281.57,254.841
STARLINK-1032,44737,2025-03-25 17:09:24.774912,16.38108285,0.0004997,53.0302,272.0337,292.5814,165.394,0.00088542,6548.977,87.906,174.114,167.569
