1 26741U 92072J   25081.39406087 -.00002844  00000-0 -81433-1 0  9993
2 26741   7.2758 196.8511 6517750  17.7842   4.7919  2.92900115272169
1 27661U 91015M   25083.48049146  .00000976  00000-0  16863-2 0  9990
2 27661   5.4124 151.6997 6709613  40.0308 353.7531  2.95097831240552
1 31848U 99025CJN 25084.64731383  .03738800  24644-1  82178-2 0  9991
2 31848  96.6773  52.6466 0020108 183.8692 176.2437 16.02244882952688
1 34914U 93036ADK 25081.87235813  .01234721  00000-0  96295-2 0  9998
2 34914  73.9558 266.8949 0025044 239.4909 120.3841 15.68663127851564
1 34948U 93036AEB 25082.77912704  .02517199  00000-0  21995-1 0  9994
2 34948  73.9718 207.2955 0028317 333.6507  26.3271 15.65094270841286
1 36228U 99025DVD 25082.48490613  .01727019  00000-0  21046-1 0  9999
2 36228  99.2391 356.5714 0025123 108.3803 252.0181 15.57211232862388
1 40869U 12008AK  25084.12490443  .00001585  00000-0  63035-1 0  9991
2 40869  18.4629 332.1867 7262175  75.3844 348.9966  2.08076827 89912
1 41501U 00055LZ  25081.64114598  .02254453  00000-0  43141-1 0  9994
2 41501  98.6593 224.9102 0022054 288.1955  71.6889 15.44671819473654
1 44737U 19074AA  25084.71487008  .09721750  12342-4  88542-3 0  9997
2 44737  53.0302 272.0337 0004997 292.5814 165.3940 16.38108285296898
1 45184U 20012G   25084.18520723  .05031352  12027-4  12509-2 0  9998
2 45184  53.0185  89.4374 0003499 240.2389 203.4255 16.28370854282685
1 45683U 20035AC  25082.21155325  .15653741  12538-4  39256-3 0  9990
2 45683  53.0271 153.5800 0003192 280.9960 130.4255 16.45951773266054
1 46284U 20061N   25081.48766028  .07487664  24492-5  76787-3 0  9996
2 46284  97.2679 159.5651 0011148 273.5907  86.4116 16.37766130252652
1 46756U 20074T   25083.85108310  .84874051  12507-4  12239-2 0  9990
2 46756  53.0138  42.9240 0008408 144.1187 301.5151 16.48268014244654
1 47503U 21006CU  25082.92103752  .02816806  23868-5  92607-3 0  9994
2 47503  97.2577 153.0744 0006876 249.3158 110.7397 16.25945445232012
1 47607U 21009BM  25084.05370304  .18765101  12548-4  52924-3 0  9995
2 47607  53.0148  87.5079 0002513 320.0201 142.2026 16.45480461229595
1 47636U 21012S   25082.05512627  .21062461  12571-4  57487-3 0  9993
2 47636  53.0197 135.4573 0005985 307.7036 126.9505 16.45253699227519
1 47670U 21012BC  25084.21490936  .21435079  12603-4  57222-3 0  9991
2 47670  53.0275 131.0139 0005803 337.6475 135.0023 16.45378035227666
1 48346U 83105C   25084.31200152  .00001106  00000-0  41815-2 0  9994
2 48346   8.2419 197.1948 5888147 142.7479 214.1896  3.97818702164350
1 48403U 21038BC  25083.29751604  .09974799  12297-4  99967-3 0  9997
2 48403  53.0368  92.9314 0002283 284.4181 196.4343 16.37317342215383
1 54396U 22151DU  25081.98454434  .02329326  00000-0  16882-1 0  9998
2 54396  98.4636 150.2385 0010990  49.2140 311.0071 15.70386471126923
1 54957U 22151SW  25082.74350767  .01670242  00000-0  15297-1 0  9994
2 54957  98.6406 171.7311 0013026  54.9735 305.2740 15.64545122127018
1 55073U 23001BS  25081.69089697  .10081506  24974-5  10714-2 0  9993
2 55073  97.3435 159.2003 0011744 269.6525  90.3427 16.37417385124057
1 55412U 23014X   25081.49534293  .19359212  46357-5  27485-3 0  9993
2 55412  69.9824 236.6307 0004666 220.2166 203.3918 16.48868180118258
1 56733U 23069C   25083.92321813  .18967566  78350-5  38256-3 0  9994
2 56733  40.9809 278.3067 0005726 242.8220 264.6483 16.46850411104306
1 59478U 23174DL  25083.16645497  .12390791  24646-5  36812-2 0  9991
2 59478  97.3835 171.6240 0012834 269.3392  90.6430 16.26928089 56861
1 61328U 24140UR  25084.62899913  .09232470  19750+0  33283-1 0  9995
2 61328  89.2593 330.8525 0020401 224.5359 135.4289 15.95631903 30334
1 61470U 24140AAC 25083.17189075  .08221756  00000-0  31253-1 0  9991
2 61470  89.2444 330.3664 0022516 227.4813 132.4565 15.82910247 30052
1 62906U 25026E   25083.14126979  .15542753 -14596-5  14981-3 0  9994
2 62906  81.9679 166.0817 0040249 247.4325 195.2930 16.47297977  7409
1 63331U 24178B   25083.81891060  .19199630  12502-4  42883-3 0  9999
2 63331  52.1202   2.6839 0028753  88.5024  14.3950 16.43181485   968
1 81813U          25082.54929580 +.00020224 +00000+0 +43586-2 0  9997
2 81813  99.0157  19.5947 0015233 165.1446 195.0201 14.58374487597314
